#aV2009  2  7  0  0   .00000000      96 DD+AD WGS84 FIT  NGA
## 1517 518400.00000000   900.00000000 54869  .0000000000000
+   31     2  3  4  5  6  7  8  9 10 11 12 13 14 15 16 17 18
+         19 20 21 22 23 24 25 26 27 28 29 30 31 32  0  0  0
+          0  0  0  0  0  0  0  0  0  0  0  0  0  0  0  0  0
+          0  0  0  0  0  0  0  0  0  0  0  0  0  0  0  0  0
+          0  0  0  0  0  0  0  0  0  0  0  0  0  0  0  0  0
++         0  0  0  0  0  0  0  0  0  0  0  0  0  0  0  0  0
++         0  0  0  0  0  0  0  0  0  0  0  0  0  0  0  0  0
++         0  0  0  0  0  0  0  0  0  0  0  0  0  0  0  0  0
++         0  0  0  0  0  0  0  0  0  0  0  0  0  0  0  0  0
++         0  0  0  0  0  0  0  0  0  0  0  0  0  0  0  0  0
%c cc cc ccc ccc cccc cccc cccc cccc ccccc ccccc ccccc ccccc
%c cc cc ccc ccc cccc cccc cccc cccc ccccc ccccc ccccc ccccc
%f  0.0000000  0.000000000  0.00000000000  0.000000000000000
%f  0.0000000  0.000000000  0.00000000000  0.000000000000000
%i    0    0    0    0      0      0      0      0         0
%i    0    0    0    0      0      0      0      0         0
/*      NGA, ST. LOUIS,MO.                                  
/*   EPHEMERIS COMPUTED FROM  3 DAYS OF DATA                
/* CCCCCCCCCCCCCCCCCCCCCCCCCCCCCCCCCCCCCCCCCCCCCCCCCCCCCCCCC
/* CCCCCCCCCCCCCCCCCCCCCCCCCCCCCCCCCCCCCCCCCCCCCCCCCCCCCCCCC
*  2009  2  7  8 30   .00000000                                                 
P  2 -22122.558619  10996.825463  -9325.670792    158.286767                    
V  2   6460.940806 -10470.353056 -28427.606518      -.014342                    
P  3  13483.385483  -8903.994371  20740.075346    349.658032                    
V  3   9242.267590  25608.552315   5267.894718       .052713                    
P  4 -19343.068704   -922.064222 -18461.362099   -327.669205                    
V  4  16335.656602 -16428.179179 -16040.852344      -.138795                    
P  5   -561.794748  15871.070867 -21595.197860   -645.859736                    
V  5 -26167.006026  -5679.985651  -3420.127531      -.444810                    
P  6  15385.749307  -3947.260809  21475.034751     65.821956                    
V  6   6654.737482  26101.454661     60.203796      -.139831                    
P  7  -1651.822717 -17185.506266  20137.321711     22.855363                    
V  7  19851.882773 -16234.927396 -12321.323932      -.002986                    
P  8 -13783.119455  -7243.873529  21539.342493   -189.571214                    
V  8  21264.296973 -17153.571900   7339.006832      -.016403                    
P  9 -12727.026489  21366.147642  -9807.957296     39.129811                    
V  9  -9784.428881   6478.621314  28811.207812       .020318                    
P 10 -20997.743374   4205.163439  15775.145002    -10.742644                    
V 10 -18391.863165  -8492.766647 -21666.893791      -.007299                    
P 11   8808.803047 -23462.299730  -8456.463312      8.264772                    
V 11  10257.449049  -5752.962867  27640.331845      -.011198                    
P 12  -4531.931879  14364.868839 -21802.289098   -318.427538                    
V 12 -26389.660213  -8880.033310   -260.914491       .036892                    
P 13  -5152.458760 -25988.156584   1859.646771    287.732082                    
V 13   1307.213269  -2725.287203 -32381.935708       .013327                    
P 14  14248.068272  13336.838724 -17943.596455   -157.612583                    
V 14   2773.406451  22783.793617  18904.380690       .053139                    
P 15  -8307.866633  18469.325887  17187.883349   -253.290248                    
V 15  -6489.078666 -20887.952013  19391.535604      -.053233                    
P 16  24294.232984    539.906726  11049.409329     76.442054                    
V 16  12363.523844   6567.463657 -27437.364723      -.027949                    
P 17 -14405.033334 -15586.992419 -16030.794061     46.319457                    
V 17  -2029.421052 -20361.970948  21367.543762       .011980                    
P 18  15984.852442  16520.400119  13824.723684    -85.699272                    
V 18 -16837.725250  -3758.563284  23969.310280       .036034                    
P 19   8281.247264 -19923.373263  15401.560334     32.786054                    
V 19   4749.608869  19082.842188  22447.124609      -.005665                    
P 20   1422.823038 -15807.265052 -21426.424771     91.474514                    
V 20  25899.231599   7543.608493  -3819.796775      -.010771                    
P 21   6988.323044  14635.298558  21188.004210     30.218580                    
V 21 -20752.256472  16612.366919  -5304.203600      -.018453                    
P 22  23457.864036  11903.152804   4052.694966    205.470652                    
V 22  -5801.580999   1353.503722  30727.123185      -.003914                    
P 23    587.118997 -25147.913919  -8133.704950    386.568836                    
V 23   4519.118624   9621.138337 -29855.115004       .006745                    
P 24  -8564.676772  20509.205457  14874.303406    163.619958                    
V 24 -15770.093635  10021.986908 -22843.608202       .030980                    
P 25   4054.713227 -20908.033954  16348.569461    226.301060                    
V 25  14721.804904 -13626.506415 -21366.530592       .251018                    
P 26 -11405.673975  12022.018197  20100.609471     42.694159                    
V 26  -5120.026352 -26283.396843  13010.823552       .029948                    
P 27 -19684.051461   1914.171810  18467.812452     22.676571                    
V 27  14733.381899 -16380.523430  17994.105989       .031130                    
P 28 -22510.862496 -13034.885067   6586.054831    -23.733365                    
V 28   8024.549986    580.833883  30203.678137       .000106                    
P 29   5285.878352  26041.870826    749.194957    -12.120215                    
V 29  -2616.669243   1318.459351 -31696.286967       .031343                    
P 30   9110.667733  16663.045271 -18962.269278    124.766432                    
V 30 -22825.760957  -5041.639588 -15614.006141       .024312                    
P 31  19981.775724  -2088.598371 -17222.438116    -50.666832                    
V 31 -15533.221910  15956.763151 -19585.897193      -.014026                    
P 32  10357.248942 -11482.548192 -21157.067008    297.513661                    
V 32  25336.582039  11578.722607   6234.252985      -.031843                    
EOF
